[
    {
        "Altitude(m)": 622200.1488664473,
        "Argument of Periapsis(deg)": 0.0,
        "Eccentricity": 0.0,
        "Inclination(deg)": 60.0,
        "Latitude(deg)": -52.162653224240806,
        "Longitude(deg)": -62.63919313310699,
        "Mean Anomaly(deg)": -65.45449999999998,
        "RAAN(deg)": 85.00000000000001,
        "Satellite Name": "Test1 392",
        "Satellite Number": 392,
        "Semi-Major Axis(m)": 6980739.136638005,
        "Time(s)": 0
    },
    {
        "Altitude(m)": 622058.3165363931,
        "Argument of Periapsis(deg)": 0.00010418945913296404,
        "Eccentricity": 0.0,
        "Inclination(deg)": 60.0,
        "Latitude(deg)": -51.79940230739886,
        "Longitude(deg)": -61.8711340097326,
        "Mean Anomaly(deg)": -64.83439385453815,
        "RAAN(deg)": 84.99957995086027,
        "Satellite Name": "Test1 392",
        "Satellite Number": 392,
        "Semi-Major Axis(m)": 6980739.136638005,
        "Time(s)": 10
    }
]